{"type":"FeatureCollection","features":[{"type":"Feature","id":"940GZZLUBST","properties":{"featureId":"940GZZLUBST","name":"Baker Street Underground Station","label":"Baker Street","lineIds":["bakerloo","circle","hammersmith-city","jubilee","metropolitan"],"zone":"1"},"geometry":{"type":"Point","coordinates":[-0.1567431,51.5225853]}},{"type":"Feature","id":"940GZZLUEMB","properties":{"featureId":"940GZZLUEMB","name":"Embankment Underground Station","label":"Embankment","lineIds":["bakerloo","circle","district","northern"],"zone":"1"},"geometry":{"type":"Point","coordinates":[-0.1222409,51.5072143]}},{"type":"Feature","id":"940GZZLUERB","properties":{"featureId":"940GZZLUERB","name":"Edgware Road (Bakerloo) Underground Station","label":"Edgware Road (Bakerloo)","lineIds":["bakerloo"],"zone":"1"},"geometry":{"type":"Point","coordinates":[-0.17015,51.520299]}},{"type":"Feature","id":"940GZZLUKPK","properties":{"featureId":"940GZZLUKPK","name":"Kilburn Park Underground Station","label":"Kilburn Park","lineIds":["bakerloo"],"zone":"2"},"geometry":{"type":"Point","coordinates":[-0.1943721,51.5350704]}},{"type":"Feature","id":"940GZZLULBN","properties":{"featureId":"940GZZLULBN","name":"Lambeth North Underground Station","label":"Lambeth North","lineIds":["bakerloo"],"zone":"1"},"geometry":{"type":"Point","coordinates":[-0.1120142,51.4989328]}},{"type":"Feature","id":"940GZZLUMVL","properties":{"featureId":"940GZZLUMVL","name":"Maida Vale Underground Station","label":"Maida Vale","lineIds":["bakerloo"],"zone":"2"},"geometry":{"type":"Point","coordinates":[-0.1857447,51.5298672]}},{"type":"Feature","id":"940GZZLUOXC","properties":{"featureId":"940GZZLUOXC","name":"Oxford Circus Underground Station","label":"Oxford Circus","lineIds":["bakerloo","central","victoria"],"zone":"1"},"geometry":{"type":"Point","coordinates":[-0.1419563,51.5154418]}},{"type":"Feature","id":"940GZZLUPCC","properties":{"featureId":"940GZZLUPCC","name":"Piccadilly Circus Underground Station","label":"Piccadilly Circus","lineIds":["bakerloo","piccadilly"],"zone":"1"},"geometry":{"type":"Point","coordinates":[-0.1345484,51.5098192]}},{"type":"Feature","id":"940GZZLURGP","properties":{"featureId":"940GZZLURGP","name":"Regent's Park Underground Station","label":"Regent's Park","lineIds":["bakerloo"],"zone":"1"},"geometry":{"type":"Point","coordinates":[-0.1466357,51.5236277]}},{"type":"Feature","id":"940GZZLUWKA","properties":{"featureId":"940GZZLUWKA","name":"Warwick Avenue Underground Station","label":"Warwick Avenue","lineIds":["bakerloo"],"zone":"2"},"geometry":{"type":"Point","coordinates":[-0.1833083,51.5229834]}},{"type":"Feature","id":"HUBCHX","properties":{"featureId":"HUBCHX","name":"Charing Cross","label":"Charing Cross","lineIds":["bakerloo","northern"],"zone":"1"},"geometry":{"type":"Point","coordinates":[-0.1263945,51.5079664]}},{"type":"Feature","id":"HUBEPH","properties":{"featureId":"HUBEPH","name":"Elephant & Castle","label":"Elephant & Castle","lineIds":["bakerloo","northern"],"zone":"1+2"},"geometry":{"type":"Point","coordinates":[-0.1005731,51.4948884]}},{"type":"Feature","id":"HUBHDN","properties":{"featureId":"HUBHDN","name":"Harlesden","label":"Harlesden","lineIds":["bakerloo"],"zone":"3"},"geometry":{"type":"Point","coordinates":[-0.257774,51.536305]}},{"type":"Feature","id":"HUBHRW","properties":{"featureId":"HUBHRW","name":"Harrow & Wealdstone","label":"Harrow & Wealdstone","lineIds":["bakerloo"],"zone":"5"},"geometry":{"type":"Point","coordinates":[-0.334896,51.592216]}},{"type":"Feature","id":"HUBKNL","properties":{"featureId":"HUBKNL","name":"Kensal Green","label":"Kensal Green","lineIds":["bakerloo"],"zone":"2"},"geometry":{"type":"Point","coordinates":[-0.22505,51.530545]}},{"type":"Feature","id":"HUBKNT","properties":{"featureId":"HUBKNT","name":"Kenton","label":"Kenton","lineIds":["bakerloo"],"zone":"4"},"geometry":{"type":"Point","coordinates":[-0.316946,51.581786]}},{"type":"Feature","id":"HUBMYB","properties":{"featureId":"HUBMYB","name":"Marylebone","label":"Marylebone","lineIds":["bakerloo"],"zone":"1"},"geometry":{"type":"Point","coordinates":[-0.1635046,51.5222363]}},{"type":"Feature","id":"HUBNWB","properties":{"featureId":"HUBNWB","name":"North Wembley","label":"North Wembley","lineIds":["bakerloo"],"zone":"4"},"geometry":{"type":"Point","coordinates":[-0.303992,51.56258]}},{"type":"Feature","id":"HUBPAD","properties":{"featureId":"HUBPAD","name":"Paddington","label":"Paddington","lineIds":["bakerloo","circle","district","hammersmith-city"],"zone":"1"},"geometry":{"type":"Point","coordinates":[-0.175365,51.5154795]}},{"type":"Feature","id":"HUBQPW","properties":{"featureId":"HUBQPW","name":"Queen's Park","label":"Queen's Park","lineIds":["bakerloo"],"zone":"2"},"geometry":{"type":"Point","coordinates":[-0.204882,51.534443]}},{"type":"Feature","id":"HUBSBP","properties":{"featureId":"HUBSBP","name":"Stonebridge Park","label":"Stonebridge Park","lineIds":["bakerloo"],"zone":"3"},"geometry":{"type":"Point","coordinates":[-0.275859,51.544041]}},{"type":"Feature","id":"HUBSOK","properties":{"featureId":"HUBSOK","name":"South Kenton","label":"South Kenton","lineIds":["bakerloo"],"zone":"4"},"geometry":{"type":"Point","coordinates":[-0.308448,51.570229]}},{"type":"Feature","id":"HUBWAT","properties":{"featureId":"HUBWAT","name":"Waterloo","label":"Waterloo","lineIds":["bakerloo","jubilee","northern","waterloo-city"],"zone":"1"},"geometry":{"type":"Point","coordinates":[-0.1139812,51.5030015]}},{"type":"Feature","id":"HUBWIJ","properties":{"featureId":"HUBWIJ","name":"Willesden Junction","label":"Willesden Junction","lineIds":["bakerloo"],"zone":"2+3"},"geometry":{"type":"Point","coordinates":[-0.243006,51.532556]}},{"type":"Feature","id":"HUBWMB","properties":{"featureId":"HUBWMB","name":"Wembley Central","label":"Wembley Central","lineIds":["bakerloo"],"zone":"4"},"geometry":{"type":"Point","coordinates":[-0.296642,51.55232]}},{"type":"Feature","id":"940GZZLUBKE","properties":{"featureId":"940GZZLUBKE","name":"Barkingside Underground Station","label":"Barkingside","lineIds":["central"],"zone":"4"},"geometry":{"type":"Point","coordinates":[0.0886245,51.5858181]}},{"type":"Feature","id":"940GZZLUBKH","properties":{"featureId":"940GZZLUBKH","name":"Buckhurst Hill Underground Station","label":"Buckhurst Hill","lineIds":["central"],"zone":"5"},"geometry":{"type":"Point","coordinates":[0.0468161,51.6259439]}},{"type":"Feature","id":"940GZZLUBLG","properties":{"featureId":"940GZZLUBLG","name":"Bethnal Green Underground Station","label":"Bethnal Green","lineIds":["central"],"zone":"2"},"geometry":{"type":"Point","coordinates":[-0.054752,51.5272449]}},{"type":"Feature","id":"940GZZLUCHL","properties":{"featureId":"940GZZLUCHL","name":"Chancery Lane Underground Station","label":"Chancery Lane","lineIds":["central"],"zone":"1"},"geometry":{"type":"Point","coordinates":[-0.1117642,51.5181738]}},{"type":"Feature","id":"940GZZLUCWL","properties":{"featureId":"940GZZLUCWL","name":"Chigwell Underground Station","label":"Chigwell","lineIds":["central"],"zone":"4"},"geometry":{"type":"Point","coordinates":[0.0757204,51.6176444]}},{"type":"Feature","id":"940GZZLUDBN","properties":{"featureId":"940GZZLUDBN","name":"Debden Underground Station","label":"Debden","lineIds":["central"],"zone":"6"},"geometry":{"type":"Point","coordinates":[0.083583,51.6452814]}},{"type":"Feature","id":"940GZZLUEAN","properties":{"featureId":"940GZZLUEAN","name":"East Acton Underground Station","label":"East Acton","lineIds":["central"],"zone":"2"},"geometry":{"type":"Point","coordinates":[-0.248137,51.5173451]}},{"type":"Feature","id":"940GZZLUEPG","properties":{"featureId":"940GZZLUEPG","name":"Epping Underground Station","label":"Epping","lineIds":["central"],"zone":"6"},"geometry":{"type":"Point","coordinates":[0.1139888,51.6936318]}},{"type":"Feature","id":"940GZZLUFLP","properties":{"featureId":"940GZZLUFLP","name":"Fairlop Underground Station","label":"Fairlop","lineIds":["central"],"zone":"4"},"geometry":{"type":"Point","coordinates":[0.0911302,51.5959477]}},{"type":"Feature","id":"940GZZLUGGH","properties":{"featureId":"940GZZLUGGH","name":"Grange Hill Underground Station","label":"Grange Hill","lineIds":["central"],"zone":"4"},"geometry":{"type":"Point","coordinates":[0.0925025,51.613134]}},{"type":"Feature","id":"940GZZLUGTH","properties":{"featureId":"940GZZLUGTH","name":"Gants Hill Underground Station","label":"Gants Hill","lineIds":["central"],"zone":"4"},"geometry":{"type":"Point","coordinates":[0.0648799,51.576525]}},{"type":"Feature","id":"940GZZLUHBN","properties":{"featureId":"940GZZLUHBN","name":"Holborn Underground Station","label":"Holborn","lineIds":["central","piccadilly"],"zone":"1"},"geometry":{"type":"Point","coordinates":[-0.1200657,51.5171149]}},{"type":"Feature","id":"940GZZLUHGR","properties":{"featureId":"940GZZLUHGR","name":"Hanger Lane Underground Station","label":"Hanger Lane","lineIds":["central"],"zone":"3"},"geometry":{"type":"Point","coordinates":[-0.2936453,51.5303098]}},{"type":"Feature","id":"940GZZLUHLT","properties":{"featureId":"940GZZLUHLT","name":"Hainault Underground Station","label":"Hainault","lineIds":["central"],"zone":"4"},"geometry":{"type":"Point","coordinates":[0.0933827,51.6033138]}},{"type":"Feature","id":"940GZZLUHPK","properties":{"featureId":"940GZZLUHPK","name":"Holland Park Underground Station","label":"Holland Park","lineIds":["central"],"zone":"2"},"geometry":{"type":"Point","coordinates":[-0.2054639,51.507192]}},{"type":"Feature","id":"940GZZLULGN","properties":{"featureId":"940GZZLULGN","name":"Loughton Underground Station","label":"Loughton","lineIds":["central"],"zone":"6"},"geometry":{"type":"Point","coordinates":[0.0553234,51.6412266]}},{"type":"Feature","id":"940GZZLULGT","properties":{"featureId":"940GZZLULGT","name":"Lancaster Gate Underground Station","label":"Lancaster Gate","lineIds":["central"],"zone":"1"},"geometry":{"type":"Point","coordinates":[-0.1753808,51.5118427]}},{"type":"Feature","id":"940GZZLULYN","properties":{"featureId":"940GZZLULYN","name":"Leyton Underground Station","label":"Leyton","lineIds":["central"],"zone":"3"},"geometry":{"type":"Point","coordinates":[-0.0051322,51.5568183]}},{"type":"Feature","id":"940GZZLULYS","properties":{"featureId":"940GZZLULYS","name":"Leytonstone Underground Station","label":"Leytonstone","lineIds":["central"],"zone":"3+4"},"geometry":{"type":"Point","coordinates":[0.0086166,51.5688027]}},{"type":"Feature","id":"940GZZLUMBA","properties":{"featureId":"940GZZLUMBA","name":"Marble Arch Underground Station","label":"Marble Arch","lineIds":["central"],"zone":"1"},"geometry":{"type":"Point","coordinates":[-0.1582531,51.513435]}},{"type":"Feature","id":"940GZZLUMED","properties":{"featureId":"940GZZLUMED","name":"Mile End Underground Station","label":"Mile End","lineIds":["central","district","hammersmith-city"],"zone":"2"},"geometry":{"type":"Point","coordinates":[-0.033435,51.5253378]}},{"type":"Feature","id":"940GZZLUNAN","properties":{"featureId":"940GZZLUNAN","name":"North Acton Underground Station","label":"North Acton","lineIds":["central"],"zone":"2+3"},"geometry":{"type":"Point","coordinates":[-0.2597818,51.5235769]}},{"type":"Feature","id":"940GZZLUNBP","properties":{"featureId":"940GZZLUNBP","name":"Newbury Park Underground Station","label":"Newbury Park","lineIds":["central"],"zone":"4"},"geometry":{"type":"Point","coordinates":[0.0899693,51.5754985]}},{"type":"Feature","id":"940GZZLUNHG","properties":{"featureId":"940GZZLUNHG","name":"Notting Hill Gate Underground Station","label":"Notting Hill Gate","lineIds":["central","circle","district"],"zone":"1+2"},"geometry":{"type":"Point","coordinates":[-0.1961978,51.5089252]}},{"type":"Feature","id":"940GZZLUNHT","properties":{"featureId":"940GZZLUNHT","name":"Northolt Underground Station","label":"Northolt","lineIds":["central"],"zone":"5"},"geometry":{"type":"Point","coordinates":[-0.3695247,51.5484582]}},{"type":"Feature","id":"940GZZLUPVL","properties":{"featureId":"940GZZLUPVL","name":"Perivale Underground Station","label":"Perivale","lineIds":["central"],"zone":"4"},"geometry":{"type":"Point","coordinates":[-0.3225887,51.5364952]}},{"type":"Feature","id":"940GZZLUQWY","properties":{"featureId":"940GZZLUQWY","name":"Queensway Underground Station","label":"Queensway","lineIds":["central"],"zone":"1"},"geometry":{"type":"Point","coordinates":[-0.1872329,51.5104729]}},{"type":"Feature","id":"940GZZLURBG","properties":{"featureId":"940GZZLURBG","name":"Redbridge Underground Station","label":"Redbridge","lineIds":["central"],"zone":"4"},"geometry":{"type":"Point","coordinates":[0.0454097,51.5763203]}},{"type":"Feature","id":"940GZZLURSG","properties":{"featureId":"940GZZLURSG","name":"Ruislip Gardens Underground Station","label":"Ruislip Gardens","lineIds":["central"],"zone":"5"},"geometry":{"type":"Point","coordinates":[-0.4104614,51.5606573]}},{"type":"Feature","id":"940GZZLURVY","properties":{"featureId":"940GZZLURVY","name":"Roding Valley Underground Station","label":"Roding Valley","lineIds":["central"],"zone":"4"},"geometry":{"type":"Point","coordinates":[0.0437553,51.6170812]}},{"type":"Feature","id":"940GZZLUSNB","properties":{"featureId":"940GZZLUSNB","name":"Snaresbrook Underground Station","label":"Snaresbrook","lineIds":["central"],"zone":"4"},"geometry":{"type":"Point","coordinates":[0.0215864,51.5808033]}},{"type":"Feature","id":"940GZZLUSPU","properties":{"featureId":"940GZZLUSPU","name":"St. Paul's Underground Station","label":"St. Paul's","lineIds":["central"],"zone":"1"},"geometry":{"type":"Point","coordinates":[-0.0975883,51.5149144]}},{"type":"Feature","id":"940GZZLUSWF","properties":{"featureId":"940GZZLUSWF","name":"South Woodford Underground Station","label":"South Woodford","lineIds":["central"],"zone":"4"},"geometry":{"type":"Point","coordinates":[0.0274276,51.5917798]}},{"type":"Feature","id":"940GZZLUTHB","properties":{"featureId":"940GZZLUTHB","name":"Theydon Bois Underground Station","label":"Theydon Bois","lineIds":["central"],"zone":"6"},"geometry":{"type":"Point","coordinates":[0.1033213,51.6717759]}},{"type":"Feature","id":"940GZZLUWCY","properties":{"featureId":"940GZZLUWCY","name":"White City Underground Station","label":"White City","lineIds":["central"],"zone":"2"},"geometry":{"type":"Point","coordinates":[-0.2242361,51.5119347]}},{"type":"Feature","id":"940GZZLUWOF","properties":{"featureId":"940GZZLUWOF","name":"Woodford Underground Station","label":"Woodford","lineIds":["central"],"zone":"4"},"geometry":{"type":"Point","coordinates":[0.0340219,51.6068074]}},{"type":"Feature","id":"940GZZLUWSD","properties":{"featureId":"940GZZLUWSD","name":"Wanstead Underground Station","label":"Wanstead","lineIds":["central"],"zone":"4"},"geometry":{"type":"Point","coordinates":[0.0286373,51.575646]}},{"type":"Feature","id":"940GZZLUWTA","properties":{"featureId":"940GZZLUWTA","name":"West Acton Underground Station","label":"West Acton","lineIds":["central"],"zone":"3"},"geometry":{"type":"Point","coordinates":[-0.280413,51.5183524]}},{"type":"Feature","id":"HUBBAN","properties":{"featureId":"HUBBAN","name":"Bank","label":"Bank","lineIds":["central","northern","waterloo-city"],"zone":"1"},"geometry":{"type":"Point","coordinates":[-0.089095,51.513395]}},{"type":"Feature","id":"HUBBDS","properties":{"featureId":"HUBBDS","name":"Bond Street","label":"Bond Street","lineIds":["central","jubilee"],"zone":"1"},"geometry":{"type":"Point","coordinates":[-0.1494231,51.5139808]}},{"type":"Feature","id":"HUBEAL","properties":{"featureId":"HUBEAL","name":"Ealing Broadway","label":"Ealing Broadway","lineIds":["central","district"],"zone":"3"},"geometry":{"type":"Point","coordinates":[-0.302131,51.514993]}},{"type":"Feature","id":"HUBGFD","properties":{"featureId":"HUBGFD","name":"Greenford","label":"Greenford","lineIds":["central"],"zone":"4"},"geometry":{"type":"Point","coordinates":[-0.345789,51.542657]}},{"type":"Feature","id":"HUBLST","properties":{"featureId":"HUBLST","name":"Liverpool Street","label":"Liverpool Street","lineIds":["central","circle","hammersmith-city","metropolitan"],"zone":"1"},"geometry":{"type":"Point","coordinates":[-0.0825205,51.5176777]}},{"type":"Feature","id":"HUBSPB","properties":{"featureId":"HUBSPB","name":"Shepherd's Bush","label":"Shepherd's Bush","lineIds":["central"],"zone":"2"},"geometry":{"type":"Point","coordinates":[-0.2183251,51.5043576]}},{"type":"Feature","id":"HUBSRA","properties":{"featureId":"HUBSRA","name":"Stratford","label":"Stratford","lineIds":["central","jubilee"],"zone":"2/3"},"geometry":{"type":"Point","coordinates":[-0.00241,51.541508]}},{"type":"Feature","id":"HUBSRU","properties":{"featureId":"HUBSRU","name":"South Ruislip","label":"South Ruislip","lineIds":["central"],"zone":"5"},"geometry":{"type":"Point","coordinates":[-0.399076,51.556893]}},{"type":"Feature","id":"HUBTCR","properties":{"featureId":"HUBTCR","name":"Tottenham Court Road","label":"Tottenham Court Road","lineIds":["central","northern"],"zone":"1"},"geometry":{"type":"Point","coordinates":[-0.1305125,51.5159715]}},{"type":"Feature","id":"HUBWRU","properties":{"featureId":"HUBWRU","name":"West Ruislip","label":"West Ruislip","lineIds":["central"],"zone":"6"},"geometry":{"type":"Point","coordinates":[-0.437816,51.569721]}},{"type":"Feature","id":"HUBKGX","properties":{"featureId":"HUBKGX","name":"King's Cross & St Pancras International","label":"King's Cross & St Pancras International","lineIds":["circle","hammersmith-city","metropolitan","northern","piccadilly","victoria"],"zone":"1"},"geometry":{"type":"Point","coordinates":[-0.123538,51.531683]}},{"type":"Feature","id":"HUBZMG","properties":{"featureId":"HUBZMG","name":"Moorgate","label":"Moorgate","lineIds":["circle","hammersmith-city","metropolitan","northern"],"zone":"1"},"geometry":{"type":"Point","coordinates":[-0.088627,51.518338]}},{"type":"Feature","id":"HUBLBG","properties":{"featureId":"HUBLBG","name":"London Bridge","label":"London Bridge","lineIds":["jubilee","northern"],"zone":"1"},"geometry":{"type":"Point","coordinates":[-0.0886993,51.5054118]}},{"type":"Feature","id":"940GZZBPSUST","properties":{"featureId":"940GZZBPSUST","name":"Battersea Power Station Underground Station","label":"Battersea Power","lineIds":["northern"],"zone":"1"},"geometry":{"type":"Point","coordinates":[-0.1429709,51.4796154]}},{"type":"Feature","id":"940GZZLUACY","properties":{"featureId":"940GZZLUACY","name":"Archway Underground Station","label":"Archway","lineIds":["northern"],"zone":"2+3"},"geometry":{"type":"Point","coordinates":[-0.1348189,51.5653116]}},{"type":"Feature","id":"940GZZLUAGL","properties":{"featureId":"940GZZLUAGL","name":"Angel Underground Station","label":"Angel","lineIds":["northern"],"zone":"1"},"geometry":{"type":"Point","coordinates":[-0.1060356,51.5324874]}},{"type":"Feature","id":"940GZZLUBOR","properties":{"featureId":"940GZZLUBOR","name":"Borough Underground Station","label":"Borough","lineIds":["northern"],"zone":"1"},"geometry":{"type":"Point","coordinates":[-0.0932926,51.5011444]}},{"type":"Feature","id":"940GZZLUBTK","properties":{"featureId":"940GZZLUBTK","name":"Burnt Oak Underground Station","label":"Burnt Oak","lineIds":["northern"],"zone":"4"},"geometry":{"type":"Point","coordinates":[-0.2640125,51.6028082]}},{"type":"Feature","id":"940GZZLUBTX","properties":{"featureId":"940GZZLUBTX","name":"Brent Cross Underground Station","label":"Brent Cross","lineIds":["northern"],"zone":"3"},"geometry":{"type":"Point","coordinates":[-0.2139731,51.5768177]}},{"type":"Feature","id":"940GZZLUBZP","properties":{"featureId":"940GZZLUBZP","name":"Belsize Park Underground Station","label":"Belsize Park","lineIds":["northern"],"zone":"2"},"geometry":{"type":"Point","coordinates":[-0.1646146,51.5503088]}},{"type":"Feature","id":"940GZZLUCFM","properties":{"featureId":"940GZZLUCFM","name":"Chalk Farm Underground Station","label":"Chalk Farm","lineIds":["northern"],"zone":"2"},"geometry":{"type":"Point","coordinates":[-0.1534811,51.5441141]}},{"type":"Feature","id":"940GZZLUCND","properties":{"featureId":"940GZZLUCND","name":"Colindale Underground Station","label":"Colindale","lineIds":["northern"],"zone":"4"},"geometry":{"type":"Point","coordinates":[-0.2499296,51.5954091]}},{"type":"Feature","id":"940GZZLUCPC","properties":{"featureId":"940GZZLUCPC","name":"Clapham Common Underground Station","label":"Clapham Common","lineIds":["northern"],"zone":"2"},"geometry":{"type":"Point","coordinates":[-0.1373589,51.4620748]}},{"type":"Feature","id":"940GZZLUCPN","properties":{"featureId":"940GZZLUCPN","name":"Clapham North Underground Station","label":"Clapham North","lineIds":["northern"],"zone":"2"},"geometry":{"type":"Point","coordinates":[-0.1296388,51.4653034]}},{"type":"Feature","id":"940GZZLUCPS","properties":{"featureId":"940GZZLUCPS","name":"Clapham South Underground Station","label":"Clapham South","lineIds":["northern"],"zone":"2+3"},"geometry":{"type":"Point","coordinates":[-0.1475523,51.4528372]}},{"type":"Feature","id":"940GZZLUCSD","properties":{"featureId":"940GZZLUCSD","name":"Colliers Wood Underground Station","label":"Colliers Wood","lineIds":["northern"],"zone":"3"},"geometry":{"type":"Point","coordinates":[-0.1778626,51.4182747]}},{"type":"Feature","id":"940GZZLUCTN","properties":{"featureId":"940GZZLUCTN","name":"Camden Town Underground Station","label":"Camden Town","lineIds":["northern"],"zone":"2"},"geometry":{"type":"Point","coordinates":[-0.1426957,51.5394397]}},{"type":"Feature","id":"940GZZLUEFY","properties":{"featureId":"940GZZLUEFY","name":"East Finchley Underground Station","label":"East Finchley","lineIds":["northern"],"zone":"3"},"geometry":{"type":"Point","coordinates":[-0.1648137,51.5871881]}},{"type":"Feature","id":"940GZZLUEGW","properties":{"featureId":"940GZZLUEGW","name":"Edgware Underground Station","label":"Edgware","lineIds":["northern"],"zone":"5"},"geometry":{"type":"Point","coordinates":[-0.2749555,51.6136623]}},{"type":"Feature","id":"940GZZLUFYC","properties":{"featureId":"940GZZLUFYC","name":"Finchley Central Underground Station","label":"Finchley Central","lineIds":["northern"],"zone":"4"},"geometry":{"type":"Point","coordinates":[-0.192318,51.6008355]}},{"type":"Feature","id":"940GZZLUGDG","properties":{"featureId":"940GZZLUGDG","name":"Goodge Street Underground Station","label":"Goodge Street","lineIds":["northern"],"zone":"1"},"geometry":{"type":"Point","coordinates":[-0.1343573,51.5205978]}},{"type":"Feature","id":"940GZZLUGGN","properties":{"featureId":"940GZZLUGGN","name":"Golders Green Underground Station","label":"Golders Green","lineIds":["northern"],"zone":"3"},"geometry":{"type":"Point","coordinates":[-0.194027,51.5723003]}},{"type":"Feature","id":"940GZZLUHBT","properties":{"featureId":"940GZZLUHBT","name":"High Barnet Underground Station","label":"High Barnet","lineIds":["northern"],"zone":"5"},"geometry":{"type":"Point","coordinates":[-0.1938826,51.650399]}},{"type":"Feature","id":"940GZZLUHCL","properties":{"featureId":"940GZZLUHCL","name":"Hendon Central Underground Station","label":"Hendon Central","lineIds":["northern"],"zone":"3+4"},"geometry":{"type":"Point","coordinates":[-0.2265541,51.5834006]}},{"type":"Feature","id":"940GZZLUHGT","properties":{"featureId":"940GZZLUHGT","name":"Highgate Underground Station","label":"Highgate","lineIds":["northern"],"zone":"3"},"geometry":{"type":"Point","coordinates":[-0.1458316,51.5776825]}},{"type":"Feature","id":"940GZZLUHTD","properties":{"featureId":"940GZZLUHTD","name":"Hampstead Underground Station","label":"Hampstead","lineIds":["northern"],"zone":"2+3"},"geometry":{"type":"Point","coordinates":[-0.1784251,51.5565973]}},{"type":"Feature","id":"940GZZLUKNG","properties":{"featureId":"940GZZLUKNG","name":"Kennington Underground Station","label":"Kennington","lineIds":["northern"],"zone":"1+2"},"geometry":{"type":"Point","coordinates":[-0.1058829,51.4882861]}},{"type":"Feature","id":"940GZZLULSQ","properties":{"featureId":"940GZZLULSQ","name":"Leicester Square Underground Station","label":"Leicester Square","lineIds":["northern","piccadilly"],"zone":"1"},"geometry":{"type":"Point","coordinates":[-0.1282641,51.5114642]}},{"type":"Feature","id":"940GZZLUMDN","properties":{"featureId":"940GZZLUMDN","name":"Morden Underground Station","label":"Morden","lineIds":["northern"],"zone":"4"},"geometry":{"type":"Point","coordinates":[-0.1947552,51.4027615]}},{"type":"Feature","id":"940GZZLUMHL","properties":{"featureId":"940GZZLUMHL","name":"Mill Hill East Underground Station","label":"Mill Hill East","lineIds":["northern"],"zone":"4"},"geometry":{"type":"Point","coordinates":[-0.2101451,51.6082746]}},{"type":"Feature","id":"940GZZLUMTC","properties":{"featureId":"940GZZLUMTC","name":"Mornington Crescent Underground Station","label":"Mornington Crescent","lineIds":["northern"],"zone":"2"},"geometry":{"type":"Point","coordinates":[-0.1380918,51.5340608]}},{"type":"Feature","id":"940GZZLUOVL","properties":{"featureId":"940GZZLUOVL","name":"Oval Underground Station","label":"Oval","lineIds":["northern"],"zone":"2"},"geometry":{"type":"Point","coordinates":[-0.1123953,51.4818339]}},{"type":"Feature","id":"940GZZLUSKW","properties":{"featureId":"940GZZLUSKW","name":"Stockwell Underground Station","label":"Stockwell","lineIds":["northern","victoria"],"zone":"2"},"geometry":{"type":"Point","coordinates":[-0.1225014,51.472211]}},{"type":"Feature","id":"940GZZLUSWN","properties":{"featureId":"940GZZLUSWN","name":"South Wimbledon Underground Station","label":"South Wimbledon","lineIds":["northern"],"zone":"3+4"},"geometry":{"type":"Point","coordinates":[-0.1926457,51.4151759]}},{"type":"Feature","id":"940GZZLUTAW","properties":{"featureId":"940GZZLUTAW","name":"Totteridge & Whetstone Underground Station","label":"Totteridge & Whetstone","lineIds":["northern"],"zone":"4"},"geometry":{"type":"Point","coordinates":[-0.1791837,51.6307163]}},{"type":"Feature","id":"940GZZLUTBC","properties":{"featureId":"940GZZLUTBC","name":"Tooting Bec Underground Station","label":"Tooting Bec","lineIds":["northern"],"zone":"3"},"geometry":{"type":"Point","coordinates":[-0.1597188,51.4356228]}},{"type":"Feature","id":"940GZZLUTBY","properties":{"featureId":"940GZZLUTBY","name":"Tooting Broadway Underground Station","label":"Tooting Broadway","lineIds":["northern"],"zone":"3"},"geometry":{"type":"Point","coordinates":[-0.1682905,51.4277387]}},{"type":"Feature","id":"940GZZLUTFP","properties":{"featureId":"940GZZLUTFP","name":"Tufnell Park Underground Station","label":"Tufnell Park","lineIds":["northern"],"zone":"2"},"geometry":{"type":"Point","coordinates":[-0.138457,51.5568005]}},{"type":"Feature","id":"940GZZLUWFN","properties":{"featureId":"940GZZLUWFN","name":"West Finchley Underground Station","label":"West Finchley","lineIds":["northern"],"zone":"4"},"geometry":{"type":"Point","coordinates":[-0.1883313,51.6094298]}},{"type":"Feature","id":"940GZZLUWOP","properties":{"featureId":"940GZZLUWOP","name":"Woodside Park Underground Station","label":"Woodside Park","lineIds":["northern"],"zone":"4"},"geometry":{"type":"Point","coordinates":[-0.185523,51.617938]}},{"type":"Feature","id":"940GZZLUWRR","properties":{"featureId":"940GZZLUWRR","name":"Warren Street Underground Station","label":"Warren Street","lineIds":["northern","victoria"],"zone":"1"},"geometry":{"type":"Point","coordinates":[-0.1385303,51.5247178]}},{"type":"Feature","id":"940GZZNEUGST","properties":{"featureId":"940GZZNEUGST","name":"Nine Elms Underground Station","label":"Nine Elms","lineIds":["northern"],"zone":"1"},"geometry":{"type":"Point","coordinates":[-0.1296937,51.4801837]}},{"type":"Feature","id":"HUBBAL","properties":{"featureId":"HUBBAL","name":"Balham","label":"Balham","lineIds":["northern"],"zone":"3"},"geometry":{"type":"Point","coordinates":[-0.1528977,51.4433857]}},{"type":"Feature","id":"HUBEUS","properties":{"featureId":"HUBEUS","name":"Euston","label":"Euston","lineIds":["northern","victoria"],"zone":"1"},"geometry":{"type":"Point","coordinates":[-0.1338745,51.5282865]}},{"type":"Feature","id":"HUBKTN","properties":{"featureId":"HUBKTN","name":"Kentish Town","label":"Kentish Town","lineIds":["northern"],"zone":"2"},"geometry":{"type":"Point","coordinates":[-0.140545,51.550409]}},{"type":"Feature","id":"HUBOLD","properties":{"featureId":"HUBOLD","name":"Old Street","label":"Old Street","lineIds":["northern"],"zone":"1"},"geometry":{"type":"Point","coordinates":[-0.088193,51.526065]}}],"meta":{"source":"tfl+osm-cache","coveredLines":["central","bakerloo","northern"],"featureCount":119,"retrievedAt":"2026-07-16T11:15:18.927Z"}}